[{"OBJECT_NAME":"OBJECT D","OBJECT_ID":"2024-174D","EPOCH":"2026-03-10T00:15:10.483200","MEAN_MOTION":15.28039787,"ECCENTRICITY":0.00110644,"INCLINATION":97.4441,"RA_OF_ASC_NODE":80.4677,"ARG_OF_PERICENTER":212.9968,"MEAN_ANOMALY":147.0582,"EPHEMERIS_TYPE":0,"CLASSIFICATION_TYPE":"U","NORAD_CAT_ID":61241,"ELEMENT_SET_NO":999,"REV_AT_EPOCH":8076,"BSTAR":0.00036340099,"MEAN_MOTION_DOT":9.884e-5,"MEAN_MOTION_DDOT":0},{"OBJECT_NAME":"STARLINK-34605","OBJECT_ID":"2025-139P","EPOCH":"2026-03-09T12:07:50.499840","MEAN_MOTION":15.30141117,"ECCENTRICITY":8.127e-5,"INCLINATION":53.1583,"RA_OF_ASC_NODE":117.4173,"ARG_OF_PERICENTER":70.4883,"MEAN_ANOMALY":289.6206,"EPHEMERIS_TYPE":0,"CLASSIFICATION_TYPE":"U","NORAD_CAT_ID":64677,"ELEMENT_SET_NO":999,"REV_AT_EPOCH":4040,"BSTAR":0.00031299371,"MEAN_MOTION_DOT":8.905e-5,"MEAN_MOTION_DDOT":0}]
